ORBVIEW 2 (SEASTAR)     
1 24883U 97037A   25326.00338318  .00000336  00000+0  13315-3 0  9992
2 24883  98.8452 122.5573 0002669  39.4475 320.6903 14.35394630493022
SL-16 R/B               
1 25400U 98043G   25325.88928325  .00000080  00000+0  52269-4 0  9992
2 25400  98.8091 273.5942 0009358 333.0216  27.0476 14.26018098423625
SL-16 R/B               
1 25407U 98045B   25325.64515409  .00000071  00000+0  59819-4 0  9998
2 25407  71.0123  48.7868 0008214 206.3796 153.6910 14.16168853411805
ISS (ZARYA)             
1 25544U 98067A   25325.83510273  .00014642  00000+0  27370-3 0  9994
2 25544  51.6324 245.9468 0003994 153.9795 206.1394 15.48969112539610
CZ-4B R/B               
1 25732U 99025C   25326.07181390  .00000094  00000+0  66413-4 0  9997
2 25732  98.6798   7.8112 0036104 295.1105  93.7533 14.18236212372916
OKEAN-O                 
1 25860U 99039A   25325.76517972  .00000791  00000+0  11117-3 0  9992
2 25860  97.9632  21.6458 0001158  68.1084 292.0251 14.80109793418429
SL-16 R/B               
1 25861U 99039B   25325.71293084  .00000674  00000+0  92667-4 0  9993
2 25861  98.0155  19.8599 0013587 245.6555 114.3239 14.81542344420879
DELTA 2 R/B             
1 25876U 99041E   25325.32763424  .00001211  00000+0  23452-3 0  9992
2 25876  51.7633  13.9151 0504890  28.6698 334.1024 14.11324859347728
HELIOS 1B               
1 25977U 99064A   25325.74463512  .00001974  00000+0  22609-3 0  9999
2 25977  98.1754 219.7893 0002505  71.5677 288.5810 14.87158866669210
TERRA                   
1 25994U 99068A   25326.11673514  .00000535  00000+0  11845-3 0  9991
2 25994  97.9776  18.5544 0002953 140.2884 271.9206 14.60918102379377
SL-16 R/B               
1 26070U 00006B   25325.98582197 -.00000061  00000+0 -67484-5 0  9999
2 26070  71.0018 324.2962 0017346 337.7495  22.2873 14.15801133333315
TITAN 4B R/B            
1 26474U 00047B   25326.05820656  .00003579  00000+0  23268-3 0  9991
2 26474  67.9901 342.9306 0040764 169.0604 191.1442 15.08568130376679
